ONEWEB-0020             
1 45133U 20008C   23360.58375464  .00000479  00000+0  13354-2 0  9999
2 45133  87.8908 215.7305 0001625  82.6221 277.5091 13.10377333190008
ONEWEB-0021             
1 45134U 20008D   23360.67473802  .00000684  00000+0  19233-2 0  9995
2 45134  87.8906 215.7206 0001449  87.4911 272.6382 13.10371568191194
ONEWEB-0022             
1 45135U 20008E   23360.62241404 -.00000360  00000+0 -10680-2 0  9992
2 45135  87.8905 215.7493 0001901  86.9451 273.1894 13.10389426190014
ONEWEB-0023             
1 45136U 20008F   23360.61134006  .00000190  00000+0  50827-3 0  9998
2 45136  87.8903 215.7249 0001320  63.1675 296.9587 13.10373012189746
ONEWEB-0024             
1 45137U 20008G   23360.58211350  .00000386  00000+0  10688-2 0  9990
2 45137  87.8901 215.7361 0001440  90.0278 270.1014 13.10373814189908
ONEWEB-0025             
1 45138U 20008H   23360.67634434  .00000604  00000+0  16941-2 0  9994
2 45138  87.8895 215.7169 0001170  87.0423 273.0838 13.10374357190995
ONEWEB-0026             
1 45139U 20008J   23360.57491298 -.00114438  00000+0 -32818+0 0  9994
2 45139  87.8972 200.6301 0003196 115.9856 244.1601 13.11155254193550
ONEWEB-0028             
1 45140U 20008K   23360.60668058 -.00000120  00000+0 -37555-3 0  9999
2 45140  87.8959 200.6696 0000747  87.2015 272.9199 13.11419840190193
